     2.10           N: GPS NAV DATA                         RINEX VERSION / TYPE
teqc  2013Mar15                         20151114 00:05:28UTCPGM / RUN BY / DATE
    1.6760D-08 -7.4510D-09 -1.1920D-07  1.1920D-07          ION ALPHA
    1.2080D+05 -1.1470D+05 -2.6210D+05  5.2430D+05          ION BETA
    0.000000000000D+00 0.000000000000D+00    61440     1871 DELTA-UTC: A0,A1,T,W
    17                                                      LEAP SECONDS
MSXP|IAx86-PII|bcc32 5.0|MSWin95->XP|486/DX+                COMMENT
     2.10           N:  GPS NAV DATA                        COMMENT
JPS2RIN V1.2.25     JAVAD GNSS          13-Nov-2015 00:59   COMMENT
                                                            END OF HEADER
12 15 11 13  4  0  0.0 3.449465148150D-04 3.183231456210D-12 0.000000000000D+00
    4.800000000000D+01-1.094062500000D+02 3.953736117550D-09 2.228897899640D+00
   -5.790963768960D-06 5.538262659680D-03 4.265457391740D-06 5.153579391480D+03
    4.464000000000D+05-8.940696716310D-08-7.036871213130D-01-3.352761268620D-08
    9.902226125060D-01 3.128437500000D+02 6.429129546250D-01-7.922115702200D-09
   -3.685867816900D-10 1.000000000000D+00 1.870000000000D+03 0.000000000000D+00
    2.000000000000D+00 0.000000000000D+00-1.257285475730D-08 4.800000000000D+01
    4.464000000000D+05
17 15 11 13  4  0  0.0-1.938389614220D-04-1.136868377220D-12 0.000000000000D+00
    7.500000000000D+01-5.221875000000D+01 4.034810923210D-09-7.761616043950D-01
   -2.687796950340D-06 1.063603861260D-02 1.209601759910D-05 5.153597200390D+03
    4.464000000000D+05-5.774199962620D-08 3.386976668830D-01 2.048909664150D-07
    9.745906057590D-01 1.558750000000D+02-1.998059515020D+00-7.827111744910D-09
    1.942938074030D-10 1.000000000000D+00 1.870000000000D+03 0.000000000000D+00
    2.000000000000D+00 0.000000000000D+00-1.071020960810D-08 7.500000000000D+01
    4.464000000000D+05
23 15 11 13  4  0  0.0-1.441398635510D-04-2.046363078990D-12 0.000000000000D+00
    5.100000000000D+01 8.384375000000D+01 4.511616498360D-09-2.004414141490D+00
    4.006549716000D-06 1.038133364640D-02 1.082941889760D-05 5.153780891420D+03
    4.464000000000D+05 1.061707735060D-07-2.846551213940D+00-1.117587089540D-07
    9.477187463240D-01 1.637812500000D+02-2.621170682620D+00-7.836397846000D-09
    6.535986535790D-11 1.000000000000D+00 1.870000000000D+03 0.000000000000D+00
    2.000000000000D+00 0.000000000000D+00-2.002343535420D-08 5.100000000000D+01
    4.464000000000D+05
24 15 11 13  3 59 44.0-7.884111255410D-06-5.684341886080D-13 0.000000000000D+00
    6.400000000000D+01 9.728125000000D+01 4.964492505330D-09-2.635027685510D+00
    4.963949322700D-06 3.709792857990D-03 3.188848495480D-06 5.153649032590D+03
    4.463840000000D+05-8.568167686460D-08-1.820045569090D+00-1.061707735060D-07
    9.514862563070D-01 3.148437500000D+02 2.949502354840D-01-8.461066723110D-09
    3.328710082710D-10 1.000000000000D+00 1.870000000000D+03 0.000000000000D+00
    2.000000000000D+00 0.000000000000D+00 2.793967723850D-09 6.400000000000D+01
    4.463840000000D+05
25 15 11 13  4  0  0.0-6.667291745540D-05-5.798028723800D-12 0.000000000000D+00
    1.150000000000D+02-9.846875000000D+01 4.337323524080D-09 1.595030591750D+00
   -5.150213837620D-06 4.707037005570D-03 3.641471266750D-06 5.153601793290D+03
    4.464000000000D+05-7.264316082000D-08-7.522861596010D-01 6.705522537230D-08
    9.785660534550D-01 3.184062500000D+02 7.187155368380D-01-8.173554747080D-09
   -3.335853237390D-10 1.000000000000D+00 1.870000000000D+03 0.000000000000D+00
    2.000000000000D+00 0.000000000000D+00 5.587935447690D-09 1.150000000000D+02
    4.464000000000D+05
28 15 11 13  4  0  0.0 4.810611717400D-04 2.614797267600D-12 0.000000000000D+00
    1.200000000000D+01-1.049687500000D+02 4.126957618640D-09-3.033505466250D-03
   -5.414709448810D-06 1.992838061410D-02 5.293637514110D-06 5.153700115200D+03
    4.464000000000D+05-2.663582563400D-07-6.797834056270D-01 6.332993507390D-08
    9.894245672880D-01 2.957500000000D+02-1.650647221730D+00-8.383563494780D-09
   -4.043025551100D-10 1.000000000000D+00 1.870000000000D+03 0.000000000000D+00
    2.000000000000D+00 0.000000000000D+00-1.117587089540D-08 1.200000000000D+01
    4.464000000000D+05
 5 15 11 13  4  0  0.0-1.752879470590D-04 3.865352482530D-12 0.000000000000D+00
    9.300000000000D+01-3.168750000000D+01 5.045924468720D-09 3.599267821090D-02
   -1.559033989910D-06 4.532482009380D-03 6.731599569320D-06 5.153670698170D+03
    4.464000000000D+05 8.754432201390D-08 2.379336533190D+00 3.911554813390D-08
    9.462878076340D-01 2.402500000000D+02 4.656004179430D-01-8.304988793260D-09
   -4.432327481370D-10 1.000000000000D+00 1.870000000000D+03 0.000000000000D+00
    2.000000000000D+00 0.000000000000D+00-1.071020960810D-08 9.300000000000D+01
    4.464000000000D+05
29 15 11 13  4  0  0.0 6.441734731200D-04 1.705302565820D-12 0.000000000000D+00
    5.600000000000D+01-5.606250000000D+01 3.914805924520D-09 1.752503998960D+00
   -2.961605787280D-06 8.590437937530D-04 1.145899295810D-05 5.153667642590D+03
    4.464000000000D+05 7.450580596920D-09 3.482166861080D-01 3.911554813390D-08
    9.754876042200D-01 1.664375000000D+02-5.556495357080D-01-7.569601018550D-09
    2.057228548970D-10 1.000000000000D+00 1.870000000000D+03 0.000000000000D+00
    2.000000000000D+00 0.000000000000D+00-1.024454832080D-08 5.600000000000D+01
    4.464000000000D+05
20 15 11 13  4  0  0.0 3.705625422300D-04 2.955857780760D-12 0.000000000000D+00
    2.700000000000D+01-2.900000000000D+01 5.537016353240D-09-1.482187034950D+00
   -1.275911927220D-06 5.021755816410D-03 5.844980478290D-06 5.153656112670D+03
    4.464000000000D+05 6.705522537230D-08 2.310421778910D+00 7.450580596920D-08
    9.260544305240D-01 2.438437500000D+02 1.267793517260D+00-8.523212168860D-09
   -3.710868858300D-10 1.000000000000D+00 1.870000000000D+03 0.000000000000D+00
    2.000000000000D+00 0.000000000000D+00-8.381903171540D-09 2.700000000000D+01
    4.464000000000D+05
 2 15 11 13  6  0  0.0 5.956385284660D-04 1.023181539490D-12 0.000000000000D+00
    3.800000000000D+01 3.265625000000D+01 5.255933216430D-09-1.340511479650D+00
    1.804903149600D-06 1.494720252230D-02 6.074085831640D-06 5.153654699330D+03
    4.536000000000D+05 4.451721906660D-07 1.305938946720D+00 1.322478055950D-07
    9.414248090020D-01 2.521875000000D+02-2.215509162200D+00-8.287845222020D-09
    3.839445642610D-10 1.000000000000D+00 1.870000000000D+03 0.000000000000D+00
    2.000000000000D+00 0.000000000000D+00-2.048909664150D-08 3.800000000000D+01
    4.536000000000D+05
 5 15 11 13  6  0  0.0-1.752609387040D-04 3.865352482530D-12 0.000000000000D+00
    1.010000000000D+02-2.687500000000D+01 5.008065748900D-09 1.086090311380D+00
   -1.233071088790D-06 4.533133818770D-03 6.953254342080D-06 5.153672155380D+03
    4.536000000000D+05-5.401670932770D-08 2.379277637570D+00 5.215406417850D-08
    9.462844824210D-01 2.378437500000D+02 4.656883203020D-01-8.228914195880D-09
   -5.428797559780D-10 1.000000000000D+00 1.870000000000D+03 0.000000000000D+00
    2.000000000000D+00 0.000000000000D+00-1.071020960810D-08 1.010000000000D+02
    4.536000000000D+05
 6 15 11 13  6  0  0.0 9.418278932570D-05 6.707523425580D-12 0.000000000000D+00
    2.200000000000D+01 2.846875000000D+01 4.820915096180D-09 3.881802491740D-01
    1.426786184310D-06 2.277638996020D-04 6.243586540220D-06 5.153569284440D+03
    4.536000000000D+05 3.725290298460D-08 1.338755601980D+00 3.725290298460D-08
    9.625729122140D-01 2.620312500000D+02 2.889786884410D+00-8.152482440760D-09
    3.700154126270D-10 1.000000000000D+00 1.870000000000D+03 0.000000000000D+00
    2.000000000000D+00 0.000000000000D+00 4.190951585770D-09 2.200000000000D+01
    4.536000000000D+05
 9 15 11 13  6  0  0.0 9.658280760050D-06 5.798028723800D-12 0.000000000000D+00
    2.700000000000D+01 8.181250000000D+01 4.267320608170D-09-3.529040877570D-02
    4.094094038010D-06 3.892983077090D-04 1.096352934840D-05 5.153703578950D+03
    4.536000000000D+05 1.303851604460D-08-2.853650908990D+00 5.587935447690D-09
    9.567406850040D-01 1.644687500000D+02 2.166114828980D+00-7.833183426390D-09
   -7.036007363660D-11 1.000000000000D+00 1.870000000000D+03 0.000000000000D+00
    2.000000000000D+00 0.000000000000D+00 9.313225746150D-10 2.700000000000D+01
    4.536000000000D+05
10 15 11 13  6  0  0.0 1.347670331600D-05 1.728039933370D-11 0.000000000000D+00
    6.000000000000D+00-2.743750000000D+01 4.546260798580D-09-1.496774970230D+00
   -1.357868313790D-06 7.950505241750D-04 7.104128599170D-06 5.181282808300D+03
    4.536000000000D+05 9.313225746150D-09 2.384073735500D+00-2.607703208920D-08
    9.594333173920D-01 2.365312500000D+02-2.929201995100D+00-7.761394721820D-09
   -4.946634618620D-10 1.000000000000D+00 1.870000000000D+03 0.000000000000D+00
    2.000000000000D+00 6.300000000000D+01 3.259629011150D-09 6.000000000000D+00
    4.536000000000D+05
12 15 11 13  6  0  0.0 3.449693322180D-04 3.183231456210D-12 0.000000000000D+00
    5.100000000000D+01-1.145937500000D+02 4.028739241730D-09-3.004024771840D+00
   -5.960464477540D-06 5.539090605450D-03 4.330649971960D-06 5.153577857970D+03
    4.536000000000D+05-5.029141902920D-08-7.037442555790D-01-1.024454832080D-07
    9.902199456070D-01 3.088750000000D+02 6.428853318060D-01-7.939973588910D-09
   -3.468001599040D-10 1.000000000000D+00 1.870000000000D+03 0.000000000000D+00
    2.000000000000D+00 0.000000000000D+00-1.257285475730D-08 5.100000000000D+01
    4.536000000000D+05
